[{"OBJECT_NAME":"STARLINK-32425","OBJECT_ID":"2024-171S","EPOCH":"2026-03-07T02:52:48.559872","MEAN_MOTION":15.30194594,"ECCENTRICITY":9.99e-5,"INCLINATION":53.1607,"RA_OF_ASC_NODE":334.4821,"ARG_OF_PERICENTER":90.7895,"MEAN_ANOMALY":269.322,"EPHEMERIS_TYPE":0,"CLASSIFICATION_TYPE":"U","NORAD_CAT_ID":61216,"ELEMENT_SET_NO":999,"REV_AT_EPOCH":8197,"BSTAR":2.2453e-5,"MEAN_MOTION_DOT":3.06e-6,"MEAN_MOTION_DDOT":0},{"OBJECT_NAME":"STARLINK-32342","OBJECT_ID":"2024-171T","EPOCH":"2026-03-07T01:03:33.907680","MEAN_MOTION":15.30191351,"ECCENTRICITY":0.0001007,"INCLINATION":53.1615,"RA_OF_ASC_NODE":334.7182,"ARG_OF_PERICENTER":103.7739,"MEAN_ANOMALY":256.3374,"EPHEMERIS_TYPE":0,"CLASSIFICATION_TYPE":"U","NORAD_CAT_ID":61217,"ELEMENT_SET_NO":999,"REV_AT_EPOCH":8287,"BSTAR":4.9861e-6,"MEAN_MOTION_DOT":-2.11e-6,"MEAN_MOTION_DDOT":0},{"OBJECT_NAME":"STARLINK-32423","OBJECT_ID":"2024-171U","EPOCH":"2026-03-07T04:14:42.100224","MEAN_MOTION":15.30199083,"ECCENTRICITY":0.0001173,"INCLINATION":53.1606,"RA_OF_ASC_NODE":334.1254,"ARG_OF_PERICENTER":84.1996,"MEAN_ANOMALY":275.9138,"EPHEMERIS_TYPE":0,"CLASSIFICATION_TYPE":"U","NORAD_CAT_ID":61218,"ELEMENT_SET_NO":999,"REV_AT_EPOCH":8289,"BSTAR":5.624e-5,"MEAN_MOTION_DOT":1.307e-5,"MEAN_MOTION_DDOT":0},{"OBJECT_NAME":"STARLINK-32248","OBJECT_ID":"2024-171V","EPOCH":"2026-03-07T03:06:29.682144","MEAN_MOTION":15.30186514,"ECCENTRICITY":0.0001368,"INCLINATION":53.1598,"RA_OF_ASC_NODE":334.5371,"ARG_OF_PERICENTER":71.8349,"MEAN_ANOMALY":288.2801,"EPHEMERIS_TYPE":0,"CLASSIFICATION_TYPE":"U","NORAD_CAT_ID":61219,"ELEMENT_SET_NO":999,"REV_AT_EPOCH":8288,"BSTAR":0.00025724,"MEAN_MOTION_DOT":7.264e-5,"MEAN_MOTION_DDOT":0},{"OBJECT_NAME":"STARLINK-11300 [DTC]","OBJECT_ID":"2024-175A","EPOCH":"2026-03-07T04:34:29.499744","MEAN_MOTION":15.69705072,"ECCENTRICITY":0.000106,"INCLINATION":53.1588,"RA_OF_ASC_NODE":68.6134,"ARG_OF_PERICENTER":75.1685,"MEAN_ANOMALY":284.945,"EPHEMERIS_TYPE":0,"CLASSIFICATION_TYPE":"U","NORAD_CAT_ID":61243,"ELEMENT_SET_NO":999,"REV_AT_EPOCH":8297,"BSTAR":2.9118e-5,"MEAN_MOTION_DOT":2.94e-5,"MEAN_MOTION_DDOT":0},{"OBJECT_NAME":"STARLINK-11276 [DTC]","OBJECT_ID":"2024-175B","EPOCH":"2026-03-07T04:27:25.552224","MEAN_MOTION":15.69704787,"ECCENTRICITY":0.0001164,"INCLINATION":53.1588,"RA_OF_ASC_NODE":68.5781,"ARG_OF_PERICENTER":94.5976,"MEAN_ANOMALY":265.5175,"EPHEMERIS_TYPE":0,"CLASSIFICATION_TYPE":"U","NORAD_CAT_ID":61244,"ELEMENT_SET_NO":999,"REV_AT_EPOCH":8297,"BSTAR":7.206e-6,"MEAN_MOTION_DOT":2.84e-6,"MEAN_MOTION_DDOT":0},{"OBJECT_NAME":"STARLINK-11280 [DTC]","OBJECT_ID":"2024-175C","EPOCH":"2026-03-07T04:13:18.606720","MEAN_MOTION":15.69696294,"ECCENTRICITY":0.0001088,"INCLINATION":53.1587,"RA_OF_ASC_NODE":68.5228,"ARG_OF_PERICENTER":12.063,"MEAN_ANOMALY":348.0413,"EPHEMERIS_TYPE":0,"CLASSIFICATION_TYPE":"U","NORAD_CAT_ID":61245,"ELEMENT_SET_NO":999,"REV_AT_EPOCH":8297,"BSTAR":-4.4948e-6,"MEAN_MOTION_DOT":-1.133e-5,"MEAN_MOTION_DDOT":0},{"OBJECT_NAME":"STARLINK-11308 [DTC]","OBJECT_ID":"2024-175D","EPOCH":"2026-03-07T04:20:20.605920","MEAN_MOTION":15.69735879,"ECCENTRICITY":0.0001271,"INCLINATION":53.1601,"RA_OF_ASC_NODE":68.5438,"ARG_OF_PERICENTER":82.6287,"MEAN_ANOMALY":277.4875,"EPHEMERIS_TYPE":0,"CLASSIFICATION_TYPE":"U","NORAD_CAT_ID":61246,"ELEMENT_SET_NO":999,"REV_AT_EPOCH":8297,"BSTAR":-3.2102e-5,"MEAN_MOTION_DOT":-4.48e-5,"MEAN_MOTION_DDOT":0},{"OBJECT_NAME":"STARLINK-11305 [DTC]","OBJECT_ID":"2024-175E","EPOCH":"2026-03-07T04:06:13.669920","MEAN_MOTION":15.69709797,"ECCENTRICITY":0.0001421,"INCLINATION":53.1593,"RA_OF_ASC_NODE":68.4803,"ARG_OF_PERICENTER":80.7848,"MEAN_ANOMALY":279.3331,"EPHEMERIS_TYPE":0,"CLASSIFICATION_TYPE":"U","NORAD_CAT_ID":61247,"ELEMENT_SET_NO":999,"REV_AT_EPOCH":8297,"BSTAR":6.2536e-6,"MEAN_MOTION_DOT":1.69e-6,"MEAN_MOTION_DDOT":0},{"OBJECT_NAME":"STARLINK-11317 [DTC]","OBJECT_ID":"2024-175F","EPOCH":"2026-03-07T03:59:10.665024","MEAN_MOTION":15.69692591,"ECCENTRICITY":0.0001195,"INCLINATION":53.159,"RA_OF_ASC_NODE":68.4482,"ARG_OF_PERICENTER":95.5114,"MEAN_ANOMALY":264.604,"EPHEMERIS_TYPE":0,"CLASSIFICATION_TYPE":"U","NORAD_CAT_ID":61248,"ELEMENT_SET_NO":999,"REV_AT_EPOCH":8297,"BSTAR":5.5032e-6,"MEAN_MOTION_DOT":7.8e-7,"MEAN_MOTION_DDOT":0},{"OBJECT_NAME":"STARLINK-11293 [DTC]","OBJECT_ID":"2024-175G","EPOCH":"2026-03-07T03:52:06.066912","MEAN_MOTION":15.69711686,"ECCENTRICITY":0.0001252,"INCLINATION":53.1578,"RA_OF_ASC_NODE":68.4167,"ARG_OF_PERICENTER":95.8635,"MEAN_ANOMALY":264.2525,"EPHEMERIS_TYPE":0,"CLASSIFICATION_TYPE":"U","NORAD_CAT_ID":61249,"ELEMENT_SET_NO":999,"REV_AT_EPOCH":8297,"BSTAR":2.4465e-7,"MEAN_MOTION_DOT":-5.59e-6,"MEAN_MOTION_DDOT":0},{"OBJECT_NAME":"STARLINK-11319 [DTC]","OBJECT_ID":"2024-175J","EPOCH":"2026-03-07T03:38:08.052576","MEAN_MOTION":15.69695866,"ECCENTRICITY":0.0001052,"INCLINATION":53.1584,"RA_OF_ASC_NODE":69.0811,"ARG_OF_PERICENTER":101.9826,"MEAN_ANOMALY":258.131,"EPHEMERIS_TYPE":0,"CLASSIFICATION_TYPE":"U","NORAD_CAT_ID":61251,"ELEMENT_SET_NO":999,"REV_AT_EPOCH":8296,"BSTAR":-1.526e-5,"MEAN_MOTION_DOT":-2.435e-5,"MEAN_MOTION_DDOT":0},{"OBJECT_NAME":"STARLINK-11318 [DTC]","OBJECT_ID":"2024-175K","EPOCH":"2026-03-07T00:27:41.426208","MEAN_MOTION":15.69710672,"ECCENTRICITY":0.0001167,"INCLINATION":53.1596,"RA_OF_ASC_NODE":69.6793,"ARG_OF_PERICENTER":77.7591,"MEAN_ANOMALY":282.3557,"EPHEMERIS_TYPE":0,"CLASSIFICATION_TYPE":"U","NORAD_CAT_ID":61252,"ELEMENT_SET_NO":999,"REV_AT_EPOCH":8411,"BSTAR":2.3921e-6,"MEAN_MOTION_DOT":-2.99e-6,"MEAN_MOTION_DDOT":0},{"OBJECT_NAME":"STARLINK-11311 [DTC]","OBJECT_ID":"2024-175L","EPOCH":"2026-03-07T00:20:37.560768","MEAN_MOTION":15.69686999,"ECCENTRICITY":9.19e-5,"INCLINATION":53.1577,"RA_OF_ASC_NODE":69.644,"ARG_OF_PERICENTER":84.217,"MEAN_ANOMALY":275.8952,"EPHEMERIS_TYPE":0,"CLASSIFICATION_TYPE":"U","NORAD_CAT_ID":61253,"ELEMENT_SET_NO":999,"REV_AT_EPOCH":8415,"BSTAR":-7.0112e-5,"MEAN_MOTION_DOT":-9.064e-5,"MEAN_MOTION_DDOT":0},{"OBJECT_NAME":"STARLINK-11306 [DTC]","OBJECT_ID":"2024-175M","EPOCH":"2026-03-07T00:13:33.342816","MEAN_MOTION":15.69713024,"ECCENTRICITY":0.000119,"INCLINATION":53.1584,"RA_OF_ASC_NODE":69.6119,"ARG_OF_PERICENTER":89.7087,"MEAN_ANOMALY":270.4067,"EPHEMERIS_TYPE":0,"CLASSIFICATION_TYPE":"U","NORAD_CAT_ID":61254,"ELEMENT_SET_NO":999,"REV_AT_EPOCH":8414,"BSTAR":1.3612e-5,"MEAN_MOTION_DOT":1.061e-5,"MEAN_MOTION_DDOT":0},{"OBJECT_NAME":"STARLINK-11313 [DTC]","OBJECT_ID":"2024-175N","EPOCH":"2026-03-07T04:41:32.710272","MEAN_MOTION":15.69724102,"ECCENTRICITY":0.0001634,"INCLINATION":53.1571,"RA_OF_ASC_NODE":68.6357,"ARG_OF_PERICENTER":98.5922,"MEAN_ANOMALY":261.5281,"EPHEMERIS_TYPE":0,"CLASSIFICATION_TYPE":"U","NORAD_CAT_ID":61255,"ELEMENT_SET_NO":999,"REV_AT_EPOCH":8297,"BSTAR":5.4666e-5,"MEAN_MOTION_DOT":6.042e-5,"MEAN_MOTION_DDOT":0},{"OBJECT_NAME":"STARLINK-32431","OBJECT_ID":"2024-175P","EPOCH":"2026-03-07T01:51:35.938656","MEAN_MOTION":15.30196389,"ECCENTRICITY":0.0001119,"INCLINATION":53.1614,"RA_OF_ASC_NODE":206.1723,"ARG_OF_PERICENTER":75.6546,"MEAN_ANOMALY":284.4579,"EPHEMERIS_TYPE":0,"CLASSIFICATION_TYPE":"U","NORAD_CAT_ID":61256,"ELEMENT_SET_NO":999,"REV_AT_EPOCH":8105,"BSTAR":4.3011e-5,"MEAN_MOTION_DOT":9.15e-6,"MEAN_MOTION_DDOT":0},{"OBJECT_NAME":"STARLINK-32432","OBJECT_ID":"2024-175Q","EPOCH":"2026-03-06T10:15:37.705536","MEAN_MOTION":15.30194387,"ECCENTRICITY":0.00011579,"INCLINATION":53.1597,"RA_OF_ASC_NODE":209.2276,"ARG_OF_PERICENTER":85.4619,"MEAN_ANOMALY":274.6514,"EPHEMERIS_TYPE":0,"CLASSIFICATION_TYPE":"U","NORAD_CAT_ID":61257,"ELEMENT_SET_NO":999,"REV_AT_EPOCH":8095,"BSTAR":1.9856964e-5,"MEAN_MOTION_DOT":2.29e-6,"MEAN_MOTION_DDOT":0},{"OBJECT_NAME":"STARLINK-32382","OBJECT_ID":"2024-175R","EPOCH":"2026-03-05T15:31:33.124224","MEAN_MOTION":15.30190029,"ECCENTRICITY":9.522e-5,"INCLINATION":53.1598,"RA_OF_ASC_NODE":212.8853,"ARG_OF_PERICENTER":101.9608,"MEAN_ANOMALY":258.1499,"EPHEMERIS_TYPE":0,"CLASSIFICATION_TYPE":"U","NORAD_CAT_ID":61258,"ELEMENT_SET_NO":999,"REV_AT_EPOCH":8083,"BSTAR":-1.543901e-6,"MEAN_MOTION_DOT":-4.05e-6,"MEAN_MOTION_DDOT":0},{"OBJECT_NAME":"STARLINK-32435","OBJECT_ID":"2024-175S","EPOCH":"2026-03-06T19:55:09.839136","MEAN_MOTION":15.30179856,"ECCENTRICITY":9.53e-5,"INCLINATION":53.1589,"RA_OF_ASC_NODE":207.4702,"ARG_OF_PERICENTER":130.2448,"MEAN_ANOMALY":229.8636,"EPHEMERIS_TYPE":0,"CLASSIFICATION_TYPE":"U","NORAD_CAT_ID":61259,"ELEMENT_SET_NO":999,"REV_AT_EPOCH":8101,"BSTAR":2.2605e-5,"MEAN_MOTION_DOT":3.1e-6,"MEAN_MOTION_DDOT":0},{"OBJECT_NAME":"STARLINK-32474","OBJECT_ID":"2024-175T","EPOCH":"2026-03-06T10:01:57.003168","MEAN_MOTION":15.30193955,"ECCENTRICITY":8.562e-5,"INCLINATION":53.1595,"RA_OF_ASC_NODE":209.1648,"ARG_OF_PERICENTER":76.2901,"MEAN_ANOMALY":283.8195,"EPHEMERIS_TYPE":0,"CLASSIFICATION_TYPE":"U","NORAD_CAT_ID":61260,"ELEMENT_SET_NO":999,"REV_AT_EPOCH":8095,"BSTAR":6.8860137e-5,"MEAN_MOTION_DOT":1.681e-5,"MEAN_MOTION_DDOT":0},{"OBJECT_NAME":"STARLINK-32447","OBJECT_ID":"2024-175U","EPOCH":"2026-03-06T19:30:49.517568","MEAN_MOTION":15.30270503,"ECCENTRICITY":0.0001587,"INCLINATION":53.1586,"RA_OF_ASC_NODE":207.365,"ARG_OF_PERICENTER":44.2261,"MEAN_ANOMALY":315.8867,"EPHEMERIS_TYPE":0,"CLASSIFICATION_TYPE":"U","NORAD_CAT_ID":61261,"ELEMENT_SET_NO":999,"REV_AT_EPOCH":8101,"BSTAR":-0.00041373,"MEAN_MOTION_DOT":-0.00012619,"MEAN_MOTION_DDOT":0},{"OBJECT_NAME":"STARLINK-32446","OBJECT_ID":"2024-175V","EPOCH":"2026-03-05T17:11:41.198784","MEAN_MOTION":15.30189643,"ECCENTRICITY":0.00012364,"INCLINATION":53.1602,"RA_OF_ASC_NODE":212.6127,"ARG_OF_PERICENTER":69.2815,"MEAN_ANOMALY":290.8319,"EPHEMERIS_TYPE":0,"CLASSIFICATION_TYPE":"U","NORAD_CAT_ID":61262,"ELEMENT_SET_NO":999,"REV_AT_EPOCH":8084,"BSTAR":9.17493e-6,"MEAN_MOTION_DOT":-8.7e-7,"MEAN_MOTION_DDOT":0}]
